sat12735
1 12735U 81053CC  20046.86551220  .00000150  00000-0  15429-3 0  9996
2 12735  83.1399 274.1349 0093822 308.3572  62.9865 13.68431975917735
